HULIANWANG DIGUI-124    
1 67064U 25295F   26197.28446797 -.00000078  00000+0  98789-4 0  9998
2 67064  49.9996 280.9839 0001089 194.9530 165.1310 13.29329196 29372
HULIANWANG DIGUI-125    
1 67065U 25295G   26196.59943537 -.00000073  00000+0  11000-3 0  9991
2 67065  49.9991 283.3508 0001076 191.1397 168.9451 13.29329835 29281
HULIANWANG DIGUI-126    
1 67066U 25295H   26197.26766203 -.00000085  00000+0  84143-4 0  9992
2 67066  49.9992 280.8845 0001130 190.2719 169.8130 13.29322783 29377
HULIANWANG DIGUI-127    
1 67067U 25295J   26197.25925873 -.00000082  00000+0  89886-4 0  9998
2 67067  50.0008 280.8751 0001123 193.3911 166.6931 13.29331009 29370
HULIANWANG DIGUI-128    
1 67236U 25311A   26197.20617815 -.00000118  00000+0  14009-4 0  9999
2 67236  50.0100  11.4812 0000936  78.3481 281.7496 13.29323790 27205
HULIANWANG DIGUI-129    
1 67237U 25311B   26197.21445888 -.00000125  00000+0 -13797-5 0  9993
2 67237  50.0096  11.5059 0000863  79.2711 280.8258 13.29324936 27208
HULIANWANG DIGUI-130    
1 67238U 25311C   26196.88874125 -.00000115  00000+0  20533-4 0  9999
2 67238  50.0070  13.0759 0000970  76.4838 283.6142 13.29323644 27155
HULIANWANG DIGUI-131    
1 67239U 25311D   26196.74674804 -.00000120  00000+0  87173-5 0  9997
2 67239  50.0065  13.6507 0000976  76.4066 283.6915 13.29323425 27139
HULIANWANG DIGUI-132    
1 67240U 25311E   26197.17273191 -.00000121  00000+0  61117-5 0  9992
2 67240  50.0078  11.9242 0000936  74.2477 285.8499 13.29324130 27191
HULIANWANG DIGUI-133    
1 67241U 25311F   26196.85533348 -.00000104  00000+0  43111-4 0  9994
2 67241  50.0122  12.9909 0000917  75.7687 284.3287 13.29324127 27152
HULIANWANG DIGUI-134    
1 67242U 25311G   26196.86365534 -.00000108  00000+0  35091-4 0  9998
2 67242  50.0050  12.9179 0000948  74.2845 285.8132 13.29323854 27157
HULIANWANG DIGUI-135    
1 67243U 25311H   26196.88036610 -.00000118  00000+0  12391-4 0  9990
2 67243  50.0037  12.9801 0000949  75.9112 284.1865 13.29323637 27155
HULIANWANG DIGUI-136    
1 67244U 25311J   26197.22283472 -.00000113  00000+0  24382-4 0  9998
2 67244  50.0108  11.5796 0000870  79.2140 280.8830 13.29324547 27206
HULIANWANG DIGUI-137    
1 67435U 26007A   26196.79924463 -.00000119  00000+0  10891-4 0  9992
2 67435  50.0098 343.2409 0000894 116.5350 243.5614 13.29326940 24590
HULIANWANG DIGUI-138    
1 67436U 26007B   26196.66562475 -.00000120  00000+0  94641-5 0  9998
2 67436  50.0077 343.8356 0000894 117.6469 242.4494 13.29325324 24575
HULIANWANG DIGUI-139    
1 67437U 26007C   26196.43156189 -.00000117  00000+0  15881-4 0  9999
2 67437  50.0048 344.5563 0000892 103.4487 256.6485 13.29328325 24541
