{"fetched_at":"2026-07-16T17:46:34.847Z","source":"https://celestrak.org/NORAD/elements/gp.php?NAME=HULIANWANG&FORMAT=JSON","constellation":"guowang","records":[{"OBJECT_NAME":"HULIANWANG DIGUI-124","OBJECT_ID":"2025-295F","EPOCH":"2026-07-16T06:49:38.032608","CLASSIFICATION_TYPE":"U","MEAN_MOTION":13.29329196,"ECCENTRICITY":0.00010891,"INCLINATION":49.9996,"RA_OF_ASC_NODE":280.9839,"ARG_OF_PERICENTER":194.953,"MEAN_ANOMALY":165.131,"EPHEMERIS_TYPE":0,"NORAD_CAT_ID":67064,"ELEMENT_SET_NO":999,"REV_AT_EPOCH":2937,"BSTAR":0.000098788544,"MEAN_MOTION_DOT":-7.8e-7,"MEAN_MOTION_DDOT":0},{"OBJECT_NAME":"HULIANWANG DIGUI-125","OBJECT_ID":"2025-295G","EPOCH":"2026-07-15T14:23:11.215968","CLASSIFICATION_TYPE":"U","MEAN_MOTION":13.29329835,"ECCENTRICITY":0.00010762,"INCLINATION":49.9991,"RA_OF_ASC_NODE":283.3508,"ARG_OF_PERICENTER":191.1397,"MEAN_ANOMALY":168.9451,"EPHEMERIS_TYPE":0,"NORAD_CAT_ID":67065,"ELEMENT_SET_NO":999,"REV_AT_EPOCH":2928,"BSTAR":0.00011000118,"MEAN_MOTION_DOT":-7.3e-7,"MEAN_MOTION_DDOT":0},{"OBJECT_NAME":"HULIANWANG DIGUI-126","OBJECT_ID":"2025-295H","EPOCH":"2026-07-16T06:25:25.999392","CLASSIFICATION_TYPE":"U","MEAN_MOTION":13.29322783,"ECCENTRICITY":0.00011307,"INCLINATION":49.9992,"RA_OF_ASC_NODE":280.8845,"ARG_OF_PERICENTER":190.2719,"MEAN_ANOMALY":169.813,"EPHEMERIS_TYPE":0,"NORAD_CAT_ID":67066,"ELEMENT_SET_NO":999,"REV_AT_EPOCH":2937,"BSTAR":0.000084143471,"MEAN_MOTION_DOT":-8.5e-7,"MEAN_MOTION_DDOT":0},{"OBJECT_NAME":"HULIANWANG DIGUI-127","OBJECT_ID":"2025-295J","EPOCH":"2026-07-16T06:13:19.954272","CLASSIFICATION_TYPE":"U","MEAN_MOTION":13.29331009,"ECCENTRICITY":0.00011231,"INCLINATION":50.0008,"RA_OF_ASC_NODE":280.8751,"ARG_OF_PERICENTER":193.3911,"MEAN_ANOMALY":166.6931,"EPHEMERIS_TYPE":0,"NORAD_CAT_ID":67067,"ELEMENT_SET_NO":999,"REV_AT_EPOCH":2937,"BSTAR":0.000089886189,"MEAN_MOTION_DOT":-8.2e-7,"MEAN_MOTION_DDOT":0},{"OBJECT_NAME":"HULIANWANG DIGUI-128","OBJECT_ID":"2025-311A","EPOCH":"2026-07-16T04:56:53.792160","CLASSIFICATION_TYPE":"U","MEAN_MOTION":13.2932379,"ECCENTRICITY":0.00009365,"INCLINATION":50.01,"RA_OF_ASC_NODE":11.4812,"ARG_OF_PERICENTER":78.3481,"MEAN_ANOMALY":281.7496,"EPHEMERIS_TYPE":0,"NORAD_CAT_ID":67236,"ELEMENT_SET_NO":999,"REV_AT_EPOCH":2720,"BSTAR":0.000014008727,"MEAN_MOTION_DOT":-0.00000118,"MEAN_MOTION_DDOT":0},{"OBJECT_NAME":"HULIANWANG DIGUI-129","OBJECT_ID":"2025-311B","EPOCH":"2026-07-16T05:08:49.247232","CLASSIFICATION_TYPE":"U","MEAN_MOTION":13.29324936,"ECCENTRICITY":0.00008633,"INCLINATION":50.0096,"RA_OF_ASC_NODE":11.5059,"ARG_OF_PERICENTER":79.2711,"MEAN_ANOMALY":280.8258,"EPHEMERIS_TYPE":0,"NORAD_CAT_ID":67237,"ELEMENT_SET_NO":999,"REV_AT_EPOCH":2720,"BSTAR":-0.00000137967,"MEAN_MOTION_DOT":-0.00000125,"MEAN_MOTION_DDOT":0},{"OBJECT_NAME":"HULIANWANG DIGUI-130","OBJECT_ID":"2025-311C","EPOCH":"2026-07-15T21:19:47.244000","CLASSIFICATION_TYPE":"U","MEAN_MOTION":13.29323644,"ECCENTRICITY":0.000097,"INCLINATION":50.007,"RA_OF_ASC_NODE":13.0759,"ARG_OF_PERICENTER":76.4838,"MEAN_ANOMALY":283.6142,"EPHEMERIS_TYPE":0,"NORAD_CAT_ID":67238,"ELEMENT_SET_NO":999,"REV_AT_EPOCH":2715,"BSTAR":0.000020533,"MEAN_MOTION_DOT":-0.00000115,"MEAN_MOTION_DDOT":0},{"OBJECT_NAME":"HULIANWANG DIGUI-131","OBJECT_ID":"2025-311D","EPOCH":"2026-07-15T17:55:19.030656","CLASSIFICATION_TYPE":"U","MEAN_MOTION":13.29323425,"ECCENTRICITY":0.00009768,"INCLINATION":50.0065,"RA_OF_ASC_NODE":13.6507,"ARG_OF_PERICENTER":76.4066,"MEAN_ANOMALY":283.6915,"EPHEMERIS_TYPE":0,"NORAD_CAT_ID":67239,"ELEMENT_SET_NO":999,"REV_AT_EPOCH":2713,"BSTAR":0.000008717338,"MEAN_MOTION_DOT":-0.0000012,"MEAN_MOTION_DDOT":0},{"OBJECT_NAME":"HULIANWANG DIGUI-132","OBJECT_ID":"2025-311E","EPOCH":"2026-07-16T04:08:44.037024","CLASSIFICATION_TYPE":"U","MEAN_MOTION":13.2932413,"ECCENTRICITY":0.00009363,"INCLINATION":50.0078,"RA_OF_ASC_NODE":11.9242,"ARG_OF_PERICENTER":74.2477,"MEAN_ANOMALY":285.8499,"EPHEMERIS_TYPE":0,"NORAD_CAT_ID":67240,"ELEMENT_SET_NO":999,"REV_AT_EPOCH":2719,"BSTAR":0.000006111746,"MEAN_MOTION_DOT":-0.00000121,"MEAN_MOTION_DDOT":0},{"OBJECT_NAME":"HULIANWANG DIGUI-133","OBJECT_ID":"2025-311F","EPOCH":"2026-07-15T20:31:40.812672","CLASSIFICATION_TYPE":"U","MEAN_MOTION":13.29324127,"ECCENTRICITY":0.0000917,"INCLINATION":50.0122,"RA_OF_ASC_NODE":12.9909,"ARG_OF_PERICENTER":75.7687,"MEAN_ANOMALY":284.3287,"EPHEMERIS_TYPE":0,"NORAD_CAT_ID":67241,"ELEMENT_SET_NO":999,"REV_AT_EPOCH":2715,"BSTAR":0.000043111,"MEAN_MOTION_DOT":-0.00000104,"MEAN_MOTION_DDOT":0},{"OBJECT_NAME":"HULIANWANG DIGUI-134","OBJECT_ID":"2025-311G","EPOCH":"2026-07-15T20:43:39.821376","CLASSIFICATION_TYPE":"U","MEAN_MOTION":13.29323854,"ECCENTRICITY":0.0000948,"INCLINATION":50.005,"RA_OF_ASC_NODE":12.9179,"ARG_OF_PERICENTER":74.2845,"MEAN_ANOMALY":285.8132,"EPHEMERIS_TYPE":0,"NORAD_CAT_ID":67242,"ELEMENT_SET_NO":999,"REV_AT_EPOCH":2715,"BSTAR":0.000035091,"MEAN_MOTION_DOT":-0.00000108,"MEAN_MOTION_DDOT":0},{"OBJECT_NAME":"HULIANWANG DIGUI-135","OBJECT_ID":"2025-311H","EPOCH":"2026-07-15T21:07:43.631040","CLASSIFICATION_TYPE":"U","MEAN_MOTION":13.29323637,"ECCENTRICITY":0.0000949,"INCLINATION":50.0037,"RA_OF_ASC_NODE":12.9801,"ARG_OF_PERICENTER":75.9112,"MEAN_ANOMALY":284.1865,"EPHEMERIS_TYPE":0,"NORAD_CAT_ID":67243,"ELEMENT_SET_NO":999,"REV_AT_EPOCH":2715,"BSTAR":0.000012391,"MEAN_MOTION_DOT":-0.00000118,"MEAN_MOTION_DDOT":0},{"OBJECT_NAME":"HULIANWANG DIGUI-136","OBJECT_ID":"2025-311J","EPOCH":"2026-07-16T05:20:52.919808","CLASSIFICATION_TYPE":"U","MEAN_MOTION":13.29324547,"ECCENTRICITY":0.00008703,"INCLINATION":50.0108,"RA_OF_ASC_NODE":11.5796,"ARG_OF_PERICENTER":79.214,"MEAN_ANOMALY":280.883,"EPHEMERIS_TYPE":0,"NORAD_CAT_ID":67244,"ELEMENT_SET_NO":999,"REV_AT_EPOCH":2720,"BSTAR":0.000024382066,"MEAN_MOTION_DOT":-0.00000113,"MEAN_MOTION_DDOT":0},{"OBJECT_NAME":"HULIANWANG DIGUI-137","OBJECT_ID":"2026-007A","EPOCH":"2026-07-15T19:10:54.736032","CLASSIFICATION_TYPE":"U","MEAN_MOTION":13.2932694,"ECCENTRICITY":0.0000894,"INCLINATION":50.0098,"RA_OF_ASC_NODE":343.2409,"ARG_OF_PERICENTER":116.535,"MEAN_ANOMALY":243.5614,"EPHEMERIS_TYPE":0,"NORAD_CAT_ID":67435,"ELEMENT_SET_NO":999,"REV_AT_EPOCH":2459,"BSTAR":0.000010891,"MEAN_MOTION_DOT":-0.00000119,"MEAN_MOTION_DDOT":0},{"OBJECT_NAME":"HULIANWANG DIGUI-138","OBJECT_ID":"2026-007B","EPOCH":"2026-07-15T15:58:29.978400","CLASSIFICATION_TYPE":"U","MEAN_MOTION":13.29325324,"ECCENTRICITY":0.0000894,"INCLINATION":50.0077,"RA_OF_ASC_NODE":343.8356,"ARG_OF_PERICENTER":117.6469,"MEAN_ANOMALY":242.4494,"EPHEMERIS_TYPE":0,"NORAD_CAT_ID":67436,"ELEMENT_SET_NO":999,"REV_AT_EPOCH":2457,"BSTAR":0.000009464103,"MEAN_MOTION_DOT":-0.0000012,"MEAN_MOTION_DDOT":0},{"OBJECT_NAME":"HULIANWANG DIGUI-139","OBJECT_ID":"2026-007C","EPOCH":"2026-07-15T10:21:26.947296","CLASSIFICATION_TYPE":"U","MEAN_MOTION":13.29328325,"ECCENTRICITY":0.0000892,"INCLINATION":50.0048,"RA_OF_ASC_NODE":344.5563,"ARG_OF_PERICENTER":103.4487,"MEAN_ANOMALY":256.6485,"EPHEMERIS_TYPE":0,"NORAD_CAT_ID":67437,"ELEMENT_SET_NO":999,"REV_AT_EPOCH":2454,"BSTAR":0.000015880971,"MEAN_MOTION_DOT":-0.00000117,"MEAN_MOTION_DDOT":0}]}
